[{"OBJECT_NAME":"TIANMU-1 21","OBJECT_ID":"2023-208C","EPOCH":"2026-03-09T21:48:13.065120","MEAN_MOTION":15.33041299,"ECCENTRICITY":0.00059807,"INCLINATION":97.4378,"RA_OF_ASC_NODE":187.7048,"ARG_OF_PERICENTER":317.2488,"MEAN_ANOMALY":42.8288,"EPHEMERIS_TYPE":0,"CLASSIFICATION_TYPE":"U","NORAD_CAT_ID":58662,"ELEMENT_SET_NO":999,"REV_AT_EPOCH":12234,"BSTAR":0.00040063782,"MEAN_MOTION_DOT":0.00012722,"MEAN_MOTION_DDOT":0},{"OBJECT_NAME":"STARLINK-34673","OBJECT_ID":"2025-167N","EPOCH":"2026-03-09T06:40:38.602848","MEAN_MOTION":15.30197018,"ECCENTRICITY":0.00011285,"INCLINATION":53.1616,"RA_OF_ASC_NODE":28.797,"ARG_OF_PERICENTER":99.5608,"MEAN_ANOMALY":260.5521,"EPHEMERIS_TYPE":0,"CLASSIFICATION_TYPE":"U","NORAD_CAT_ID":65090,"ELEMENT_SET_NO":999,"REV_AT_EPOCH":3341,"BSTAR":0.0014778358,"MEAN_MOTION_DOT":0.00043663,"MEAN_MOTION_DDOT":0}]
